NORAD_CAT_ID,OBJECT_NAME,OBJECT_TYPE,EPOCH,MEAN_MOTION,ECCENTRICITY,INCLINATION,RA_OF_ASC_NODE,ARG_OF_PERICENTER,MEAN_ANOMALY,BSTAR,MEAN_MOTION_DOT,MEAN_MOTION_DDOT,TLE_LINE0,TLE_LINE1,TLE_LINE2,SEMIMAJOR_AXIS,PERIOD,APOGEE,PERIGEE,DECAYED
55415.0,STARLINK-5618,PAYLOAD,2023-09-09 03:01:12,14.98326554,0.0003591,70.0003,225.1625,269.2976,90.7772,-3.7714e-05,-5.43e-06,0.0,0 STARLINK-5618,1 55415U 23014AA  23252.12583500 -.00000543  00000-0 -37714-4 0  9998,2 55415  70.0003 225.1625 0003591 269.2976  90.7772 14.98326554 33931,6950.204,96.107,574.564,569.573,0.0
55415.0,STARLINK-5618,PAYLOAD,2023-09-09 07:49:36,14.98329159,0.0003601,70.0003,224.6579,268.9873,91.0874,-5.725e-06,-1.61e-06,0.0,0 STARLINK-5618,1 55415U 23014AA  23252.32611249 -.00000161  00000-0 -57250-5 0  9996,2 55415  70.0003 224.6579 0003601 268.9873  91.0874 14.98329159 34906,6950.195,96.107,574.563,569.558,0.0
55415.0,STARLINK-5618,PAYLOAD,2023-09-10 01:27:05,14.98276003,0.0003322,70.0003,222.8061,271.2148,88.8631,0.00084904,0.00010038,0.0,0 STARLINK-5618,1 55415U 23014AA  23253.06047833  .00010038  00000-0  84904-3 0  9996,2 55415  70.0003 222.8061 0003322 271.2148  88.8631 14.98276003 34076,6950.36,96.11,574.534,569.916,0.0
55415.0,STARLINK-5618,PAYLOAD,2023-09-10 09:27:45,14.98293509,0.0003303,70.0005,221.9649,269.137,90.941,0.00069324,8.181e-05,0.0,0 STARLINK-5618,1 55415U 23014AA  23253.39427910  .00008181  00000-0  69324-3 0  9995,2 55415  70.0005 221.9649 0003303 269.1370  90.9410 14.98293509 34127,6950.306,96.109,574.466,569.875,0.0
55415.0,STARLINK-5618,PAYLOAD,2023-09-10 15:52:17,14.9832976,0.0003154,70.0008,221.2919,274.894,85.1859,3.7878e-06,-4.8e-07,0.0,0 STARLINK-5618,1 55415U 23014AA  23253.66131314 -.00000048  00000-0  37878-5 0  9991,2 55415  70.0008 221.2919 0003154 274.8940  85.1859 14.98329760 34169,6950.194,96.107,574.251,569.867,0.0
55415.0,STARLINK-5618,PAYLOAD,2023-09-11 07:53:38,14.98328235,0.0003458,70.0005,219.6076,266.8893,93.1871,2.1769e-05,1.67e-06,0.0,0 STARLINK-5618,1 55415U 23014AA  23254.32891296  .00000167  00000-0  21769-4 0  9999,2 55415  70.0005 219.6076 0003458 266.8893  93.1871 14.98328235 35201,6950.198,96.107,574.467,569.66,0.0
55415.0,STARLINK-5618,PAYLOAD,2023-09-11 20:42:42,14.9833093,0.0003305,70.0008,218.2611,270.4413,89.6367,2.4865e-05,2.04e-06,0.0,0 STARLINK-5618,1 55415U 23014AA  23254.86299184  .00000204  00000-0  24865-4 0  9998,2 55415  70.0008 218.2611 0003305 270.4413  89.6367 14.98330930 34343,6950.19,96.107,574.352,569.758,0.0
55415.0,STARLINK-5618,PAYLOAD,2023-09-12 07:55:38,14.98322128,0.0002942,70.001,217.0827,261.366,98.7166,0.00034219,3.991e-05,0.0,0 STARLINK-5618,1 55415U 23014AA  23255.33030836  .00003991  00000-0  34219-3 0  9997,2 55415  70.0010 217.0827 0002942 261.3660  98.7166 14.98322128 35351,6950.217,96.108,574.127,570.037,0.0
55415.0,STARLINK-5618,PAYLOAD,2023-09-13 01:33:07,14.98331729,0.0003431,70.0014,215.2319,269.9603,90.1163,9.4908e-05,1.04e-05,0.0,0 STARLINK-5618,1 55415U 23014AA  23256.06466535  .00001040  00000-0  94908-4 0  9992,2 55415  70.0014 215.2319 0003431 269.9603  90.1163 14.98331729 34524,6950.188,96.107,574.437,569.668,0.0
55415.0,STARLINK-5618,PAYLOAD,2023-09-13 07:57:38,14.98342002,0.0003063,70.0017,214.5601,263.3982,96.6829,0.00015881,1.803e-05,0.0,0 STARLINK-5618,1 55415U 23014AA  23256.33169551  .00001803  00000-0  15881-3 0  9999,2 55415  70.0017 214.5601 0003063 263.3982  96.6829 14.98342002 34562,6950.156,96.106,574.15,569.892,0.0
55415.0,STARLINK-5618,PAYLOAD,2023-09-13 20:46:44,14.9833051,0.0001898,70.0051,213.2131,258.7024,101.3922,3.3414e-05,3.06e-06,0.0,0 STARLINK-5618,1 55415U 23014AA  23256.86578733  .00000306  00000-0  33414-4 0  9993,2 55415  70.0051 213.2131 0001898 258.7024 101.3922 14.98330510 35585,6950.191,96.107,573.375,570.737,0.0
55415.0,STARLINK-5618,PAYLOAD,2023-09-14 03:11:17,14.98320153,0.0003167,70.0014,212.5395,259.3782,100.702,-0.00018954,-2.353e-05,0.0,0 STARLINK-5618,1 55415U 23014AA  23257.13283781 -.00002353  00000-0 -18954-3 0  9997,2 55415  70.0014 212.5395 0003167 259.3782 100.7020 14.98320153 34681,6950.223,96.108,574.289,569.887,0.0
55415.0,STARLINK-5618,PAYLOAD,2023-09-14 06:23:33,14.98320299,0.0003038,70.0017,212.2039,256.553,103.529,-0.00016495,-2.06e-05,0.0,0 STARLINK-5618,1 55415U 23014AA  23257.26635874 -.00002060  00000-0 -16495-3 0  9998,2 55415  70.0017 212.2039 0003038 256.5530 103.5290 14.98320299 35641,6950.223,96.108,574.199,569.976,0.0
55415.0,STARLINK-5618,PAYLOAD,2023-09-14 20:48:45,14.98328383,0.0003497,70.0009,210.6869,263.8592,96.2169,-0.00013139,-1.66e-05,0.0,0 STARLINK-5618,1 55415U 23014AA  23257.86719323 -.00001660  00000-0 -13139-3 0  9993,2 55415  70.0009 210.6869 0003497 263.8592  96.2169 14.98328383 35738,6950.198,96.107,574.493,569.632,0.0
55415.0,STARLINK-5618,PAYLOAD,2023-09-15 03:13:17,14.98333628,0.0003085,70.0012,210.0139,257.7156,102.3658,-5.5346e-05,-7.53e-06,0.0,0 STARLINK-5618,1 55415U 23014AA  23258.13422782 -.00000753  00000-0 -55346-4 0  9993,2 55415  70.0012 210.0139 0003085 257.7156 102.3658 14.98333628 34837,6950.182,96.107,574.191,569.903,0.0
55415.0,STARLINK-5618,PAYLOAD,2023-09-15 06:25:33,14.98335418,0.0003043,70.0013,209.6767,259.1181,100.9636,-1.1569e-05,-2.31e-06,0.0,0 STARLINK-5618,1 55415U 23014AA  23258.26774543 -.00000231  00000-0 -11569-4 0  9992,2 55415  70.0013 209.6767 0003043 259.1181 100.9636 14.98335418 35792,6950.176,96.107,574.156,569.926,0.0
55415.0,STARLINK-5618,PAYLOAD,2023-09-16 03:15:18,14.98337239,0.0003115,70.0012,207.4895,261.8166,98.264,-5.5339e-05,-7.53e-06,0.0,0 STARLINK-5618,1 55415U 23014AA  23259.13562545 -.00000753  00000-0 -55339-4 0  9998,2 55415  70.0012 207.4895 0003115 261.8166  98.2640 14.98337239 34989,6950.171,96.107,574.2,569.871,0.0
55415.0,STARLINK-5618,PAYLOAD,2023-09-16 06:27:34,14.98325876,0.0003259,70.0009,207.1526,262.8579,97.2209,0.0001615,1.834e-05,0.0,0 STARLINK-5618,1 55415U 23014AA  23259.26914688  .00001834  00000-0  16150-3 0  9997,2 55415  70.0009 207.1526 0003259 262.8579  97.2209 14.98325876 35942,6950.206,96.107,574.336,569.806,0.0
55415.0,STARLINK-5618,PAYLOAD,2023-09-17 06:29:35,14.98332262,0.0003238,70.0013,204.6291,267.4299,92.6489,8.8752e-07,-8.2e-07,0.0,0 STARLINK-5618,1 55415U 23014AA  23260.27054920 -.00000082  00000-0  88752-6 0  9999,2 55415  70.0013 204.6291 0003238 267.4299  92.6489 14.98332262 35154,6950.186,96.107,574.301,569.8,0.0
55415.0,STARLINK-5618,PAYLOAD,2023-09-18 06:31:35,14.98340239,0.0003022,70.0019,202.1037,265.0374,95.044,0.00016288,1.852e-05,0.0,0 STARLINK-5618,1 55415U 23014AA  23261.27193703  .00001852  00000-0  16288-3 0  9990,2 55415  70.0019 202.1037 0003022 265.0374  95.0440 14.98340239 35304,6950.161,96.106,574.127,569.926,0.0
55415.0,STARLINK-5618,PAYLOAD,2023-09-18 11:19:59,14.98339835,0.0003068,70.002,201.5988,269.838,90.2428,0.00017324,1.975e-05,0.0,0 STARLINK-5618,1 55415U 23014AA  23261.47221596  .00001975  00000-0  17324-3 0  9992,2 55415  70.0020 201.5988 0003068 269.8380  90.2428 14.98339835 36273,6950.162,96.106,574.16,569.895,0.0
55415.0,STARLINK-5618,PAYLOAD,2023-09-18 20:56:48,14.98327474,0.0002638,70.0033,200.5916,249.8735,110.214,6.2753e-05,6.56e-06,0.0,0 STARLINK-5618,1 55415U 23014AA  23261.87278530  .00000656  00000-0  62753-4 0  9998,2 55415  70.0033 200.5916 0002638 249.8735 110.2140 14.98327474 36338,6950.201,96.107,573.899,570.232,0.0
55415.0,STARLINK-5618,PAYLOAD,2023-09-19 01:45:12,14.98325825,0.0002732,70.0032,200.0868,250.5555,109.5309,8.5167e-05,9.23e-06,0.0,0 STARLINK-5618,1 55415U 23014AA  23262.07306618  .00000923  00000-0  85167-4 0  9991,2 55415  70.0032 200.0868 0002732 250.5555 109.5309 14.98325825 35427,6950.206,96.107,573.97,570.172,0.0
55415.0,STARLINK-5618,PAYLOAD,2023-09-19 04:57:28,14.98331956,0.0002529,70.0031,199.7491,248.811,111.2779,0.00010388,1.147e-05,0.0,0 STARLINK-5618,1 55415U 23014AA  23262.20658161  .00001147  00000-0  10388-3 0  9990,2 55415  70.0031 199.7491 0002529 248.8110 111.2779 14.98331956 35448,6950.187,96.107,573.81,570.294,0.0
55415.0,STARLINK-5618,PAYLOAD,2023-09-20 01:47:14,14.98327853,0.0002877,70.002,197.5606,253.3891,106.6952,-0.00014874,-1.867e-05,0.0,0 STARLINK-5618,1 55415U 23014AA  23263.07446911 -.00001867  00000-0 -14874-3 0  9999,2 55415  70.0020 197.5606 0002877 253.3891 106.6952 14.98327853 35579,6950.2,96.107,574.064,570.065,0.0
55415.0,STARLINK-5618,PAYLOAD,2023-09-20 13:00:10,14.98365992,0.0002572,70.0035,196.3796,276.9922,83.0945,-0.00090529,-0.00010888,0.0,0 STARLINK-5618,1 55415U 23014AA  23263.54178418 -.00010888  00000-0 -90529-3 0  9999,2 55415  70.0035 196.3796 0002572 276.9922  83.0945 14.98365992 36588,6950.082,96.105,573.734,570.159,0.0
55415.0,STARLINK-5618,PAYLOAD,2023-09-20 19:24:06,14.98735284,0.0007904,70.0034,195.7086,273.9605,86.0651,0.0042703,0.00051804,0.0,0 STARLINK-5618,1 55415U 23014AA  23263.80840489  .00051804  00000-0  42703-2 0  9993,2 55415  70.0034 195.7086 0007904 273.9605  86.0651 14.98735284 35683,6948.94,96.081,576.297,565.312,0.0
55415.0,STARLINK-5618,PAYLOAD,2023-09-21 06:00:00,14.98307258,0.0003122,70.0022,194.5952,268.171,310.9245,0.0039023,0.00046753,0.0,0 STARLINK-5618,1 55415U 23014AA  23264.25001157  .00046753  00000-0  39023-2 0  9992,2 55415  70.0022 194.5952 0003122 268.1710 310.9245 14.98307258 35752,6950.263,96.108,574.298,569.958,0.0
55415.0,STARLINK-5618,PAYLOAD,2023-09-21 08:00:01,14.98330625,0.0003133,70.0019,194.3852,267.694,40.7633,0.00043075,5.05e-05,0.0,0 STARLINK-5618,1 55415U 23014AA  23264.33334491  .00005050  00000-0  43075-3 0  9999,2 55415  70.0019 194.3852 0003133 267.6940  40.7633 14.98330625  5790,6950.191,96.107,574.233,569.878,0.0
55415.0,STARLINK-5618,PAYLOAD,2023-09-21 21:02:51,14.98326566,0.0003008,70.0012,193.0153,262.9589,97.1228,0.00010259,1.131e-05,0.0,0 STARLINK-5618,1 55415U 23014AA  23264.87699073  .00001131  00000-0  10259-3 0  9992,2 55415  70.0012 193.0153 0003008 262.9589  97.1228 14.98326566 36789,6950.204,96.107,574.159,569.978,0.0
